IRIDIUM 171             
1 43929U 19002H   23321.17005193  .00000328  00000+0  11024-3 0  9999
2 43929  86.4015  27.8853 0002311  93.7074 266.4386 14.34214382253796
IRIDIUM 170             
1 43930U 19002J   23320.90928193  .00001119  00000+0  17358-3 0  9990
2 43930  86.6134  27.8465 0002397  97.9593 262.1896 14.72261075260472
IRIDIUM 167             
1 43931U 19002K   23321.16369169  .00000279  00000+0  92659-4 0  9996
2 43931  86.4005  27.7003 0002277  95.6566 264.4889 14.34219423253799
IRIDIUM 181             
1 56726U 23068S   23321.37455076  .00000480  00000+0  13591-3 0  9996
2 56726  86.8633  71.0165 0003088  98.5839 261.5713 14.43577633 26436
IRIDIUM 177             
1 56727U 23068T   23321.00967213  .00001835  00000+0  23808-3 0  9995
2 56727  86.1994  56.5562 0002148  91.8264 268.3203 14.80219987 26843
IRIDIUM 174             
1 56728U 23068U   23321.34224642  .00001808  00000+0  23455-3 0  9993
2 56728  86.2002  56.4849 0001985  97.5995 262.5451 14.80225565 26899
IRIDIUM 178             
1 56729U 23068V   23320.93130156  .00001790  00000+0  23211-3 0  9994
2 56729  86.5794  64.0363 0002176  91.2063 268.9408 14.80226715 26831
IRIDIUM 179             
1 56730U 23068W   23320.99345627  .00001759  00000+0  22814-3 0  9996
2 56730  86.6802  65.4589 0001952  99.0377 261.1065 14.80229594 26847
